COMMENT,ORIGINATOR,NORAD_CAT_ID,OBJECT_NAME,OBJECT_TYPE,CLASSIFICATION_TYPE,INTLDES,EPOCH,EPOCH_MICROSECONDS,MEAN_MOTION,ECCENTRICITY,INCLINATION,RA_OF_ASC_NODE,ARG_OF_PERICENTER,MEAN_ANOMALY,EPHEMERIS_TYPE,ELEMENT_SET_NO,REV_AT_EPOCH,BSTAR,MEAN_MOTION_DOT,MEAN_MOTION_DDOT,FILE,TLE_LINE0,TLE_LINE1,TLE_LINE2,OBJECT_ID,OBJECT_NUMBER,SEMIMAJOR_AXIS,PERIOD,APOGEE,PERIGEE
GENERATED VIA SPACETRACK.ORG API,18 SPCS,41616,FLOCK 2P 5,PAYLOAD,U,16040T,1/12/2019 19:35,745088,15.24973692,0.0009362,97.3943,80.3313,216.15,143.9106,0,999,14216,3.93E-05,9.09E-06,0,2393525,0 FLOCK 2P 5,1 41616U 16040T   19012.81630492  .00000909  00000-0  39322-4 0  9996,2 41616  97.3943  80.3313 0009362 216.1500 143.9106 15.24973692142164,2016-040T,41616,6869.001,94.427,497.297,484.435
GENERATED VIA SPACETRACK.ORG API,18 SPCS,41616,FLOCK 2P 5,PAYLOAD,U,16040T,1/12/2019 22:44,354912,15.24974358,0.0009371,97.3943,80.4609,215.6802,144.3811,0,999,14218,4.19E-05,9.72E-06,0,2393570,0 FLOCK 2P 5,1 41616U 16040T   19012.94753883 +.00000972 +00000-0 +41851-4 0  9990,2 41616 097.3943 080.4609 0009371 215.6802 144.3811 15.24974358142182,2016-040T,41616,6868.999,94.427,497.301,484.427
GENERATED VIA SPACETRACK.ORG API,18 SPCS,41616,FLOCK 2P 5,PAYLOAD,U,16040T,1/13/2019 19:12,377088,15.24976244,0.0009446,97.3942,81.3033,212.4041,147.6618,0,999,14231,4.25E-05,9.89E-06,0,2394123,0 FLOCK 2P 5,1 41616U 16040T   19013.80055992 +.00000989 +00000-0 +42500-4 0  9992,2 41616 097.3942 081.3033 0009446 212.4041 147.6618 15.24976244142317,2016-040T,41616,6868.993,94.427,497.347,484.37
GENERATED VIA SPACETRACK.ORG API,18 SPCS,41616,FLOCK 2P 5,PAYLOAD,U,16040T,1/14/2019 3:05,910720,15.24976854,0.0009479,97.3941,81.6273,211.1509,148.9168,0,999,14236,4.22E-05,9.81E-06,0,2394241,0 FLOCK 2P 5,1 41616U 16040T   19014.12864480  .00000981  00000-0  42206-4 0  9993,2 41616  97.3941  81.6273 0009479 211.1509 148.9168 15.24976854142362,2016-040T,41616,6868.991,94.427,497.368,484.345
GENERATED VIA SPACETRACK.ORG API,18 SPCS,41616,FLOCK 2P 5,PAYLOAD,U,16040T,1/14/2019 21:59,529056,15.24978609,0.0009549,97.394,82.4049,208.174,151.8982,0,999,14248,4.31E-05,1.01E-05,0,2394633,0 FLOCK 2P 5,1 41616U 16040T   19014.91604779 +.00001005 +00000-0 +43146-4 0  9995,2 41616 097.3940 082.4049 0009549 208.1740 151.8982 15.24978609142482,2016-040T,41616,6868.986,94.427,497.41,484.292
GENERATED VIA SPACETRACK.ORG API,18 SPCS,41616,FLOCK 2P 5,PAYLOAD,U,16040T,1/15/2019 20:01,697600,15.24980133,0.0009635,97.394,83.3121,204.7616,155.3161,0,999,14262,4.10E-05,9.51E-06,0,2395515,0 FLOCK 2P 5,1 41616U 16040T   19015.83468400  .00000951  00000-0  40972-4 0  9999,2 41616  97.3940  83.3121 0009635 204.7616 155.3161 15.24980133142622,2016-040T,41616,6868.982,94.427,497.465,484.228
GENERATED VIA SPACETRACK.ORG API,18 SPCS,41616,FLOCK 2P 5,PAYLOAD,U,16040T,1/16/2019 21:13,317856,15.24982582,0.000973,97.3938,84.3488,200.8253,159.259,0,999,14278,4.32E-05,1.01E-05,0,2396069,0 FLOCK 2P 5,1 41616U 16040T   19016.88455229 +.00001006 +00000-0 +43165-4 0  9999,2 41616 097.3938 084.3488 0009730 200.8253 159.2590 15.24982582142782,2016-040T,41616,6868.974,94.427,497.523,484.156
GENERATED VIA SPACETRACK.ORG API,18 SPCS,41616,FLOCK 2P 5,PAYLOAD,U,16040T,1/17/2019 3:31,448512,15.24983229,0.0009758,97.3938,84.608,199.8406,160.2453,0,999,14282,4.37E-05,1.02E-05,0,2396204,0 FLOCK 2P 5,1 41616U 16040T   19017.14701908  .00001019  00000-0  43704-4 0  9990,2 41616  97.3938  84.6080 0009758 199.8406 160.2453 15.24983229142824,2016-040T,41616,6868.972,94.427,497.54,484.135
GENERATED VIA SPACETRACK.ORG API,18 SPCS,41616,FLOCK 2P 5,PAYLOAD,U,16040T,1/17/2019 11:24,836128,15.24984447,0.0009792,97.3937,84.932,198.5934,161.4947,0,999,14287,4.72E-05,1.11E-05,0,2396563,0 FLOCK 2P 5,1 41616U 16040T   19017.47510227 +.00001106 +00000-0 +47189-4 0  9996,2 41616 097.3937 084.9320 0009792 198.5934 161.4947 15.24984447142872,2016-040T,41616,6868.969,94.427,497.56,484.108
GENERATED VIA SPACETRACK.ORG API,18 SPCS,41616,FLOCK 2P 5,PAYLOAD,U,16040T,1/17/2019 20:51,541184,15.24984779,0.0009834,97.3936,85.3208,197.1488,162.9419,0,999,14293,4.45E-05,1.04E-05,0,2396924,0 FLOCK 2P 5,1 41616U 16040T   19017.86880256 +.00001038 +00000-0 +44456-4 0  9999,2 41616 097.3936 085.3208 0009834 197.1488 162.9419 15.24984779142932,2016-040T,41616,6868.968,94.427,497.588,484.078
GENERATED VIA SPACETRACK.ORG API,18 SPCS,41616,FLOCK 2P 5,PAYLOAD,U,16040T,1/18/2019 11:01,42176,15.24985822,0.0009892,97.3936,85.904,195.0351,165.0594,0,999,14302,4.36E-05,1.02E-05,0,2396868,0 FLOCK 2P 5,1 41616U 16040T   19018.45935234  .00001016  00000-0  43582-4 0  9997,2 41616  97.3936  85.9040 0009892 195.0351 165.0594 15.24985822143021,2016-040T,41616,6868.965,94.427,497.624,484.035
GENERATED VIA SPACETRACK.ORG API,18 SPCS,41616,FLOCK 2P 5,PAYLOAD,U,16040T,1/18/2019 22:02,950624,15.24986543,0.0009944,97.3934,86.3576,193.387,166.7105,0,999,14309,4.20E-05,9.77E-06,0,2397439,0 FLOCK 2P 5,1 41616U 16040T   19018.91866841 +.00000977 +00000-0 +42015-4 0  9990,2 41616 097.3934 086.3576 0009944 193.3870 166.7105 15.24986543143097,2016-040T,41616,6868.962,94.427,497.658,483.997
GENERATED VIA SPACETRACK.ORG API,18 SPCS,41616,FLOCK 2P 5,PAYLOAD,U,16040T,1/19/2019 10:38,115168,15.24987299,0.0009995,97.3934,86.8759,191.5326,168.5685,0,999,14317,4.00E-05,9.28E-06,0,2397727,0 FLOCK 2P 5,1 41616U 16040T   19019.44360087 +.00000928 +00000-0 +40031-4 0  9992,2 41616 097.3934 086.8759 0009995 191.5326 168.5685 15.24987299143178,2016-040T,41616,6868.96,94.427,497.691,483.96
GENERATED VIA SPACETRACK.ORG API,18 SPCS,41616,FLOCK 2P 5,PAYLOAD,U,16040T,1/19/2019 20:05,682848,15.24988341,0.0010029,97.3933,87.2647,190.1663,169.9374,0,999,14323,4.11E-05,9.56E-06,0,2397547,0 FLOCK 2P 5,1 41616U 16040T   19019.83729957  .00000956  00000-0  41147-4 0  9990,2 41616  97.3933  87.2647 0010029 190.1663 169.9374 15.24988341143233,2016-040T,41616,6868.957,94.426,497.711,483.933
GENERATED VIA SPACETRACK.ORG API,18 SPCS,41616,FLOCK 2P 5,PAYLOAD,U,16040T,1/20/2019 21:17,853824,15.24990083,0.0010133,97.3931,88.3013,186.5401,173.5706,0,999,14339,3.88E-05,8.98E-06,0,2397904,0 FLOCK 2P 5,1 41616U 16040T   19020.88716266 +.00000898 +00000-0 +38834-4 0  9990,2 41616 097.3931 088.3013 0010133 186.5401 173.5706 15.24990083143398,2016-040T,41616,6868.952,94.426,497.777,483.856
GENERATED VIA SPACETRACK.ORG API,18 SPCS,41616,FLOCK 2P 5,PAYLOAD,U,16040T,1/21/2019 14:36,683840,15.24991352,0.001022,97.393,89.014,183.9522,176.1637,0,999,14350,3.86E-05,8.91E-06,0,2398043,0 FLOCK 2P 5,1 41616U 16040T   19021.60894310 +.00000891 +00000-0 +38574-4 0  9992,2 41616 097.3930 089.0140 0010220 183.9522 176.1637 15.24991352143503,2016-040T,41616,6868.948,94.426,497.833,483.793
GENERATED VIA SPACETRACK.ORG API,18 SPCS,41616,FLOCK 2P 5,PAYLOAD,U,16040T,1/21/2019 19:20,438304,15.24991749,0.0010237,97.393,89.2084,183.2568,176.8605,0,999,14353,3.88E-05,8.97E-06,0,2398361,0 FLOCK 2P 5,1 41616U 16040T   19021.80579211 +.00000897 +00000-0 +38795-4 0  9995,2 41616 097.3930 089.2084 0010237 183.2568 176.8605 15.24991749143538,2016-040T,41616,6868.947,94.426,497.843,483.78
GENERATED VIA SPACETRACK.ORG API,18 SPCS,41616,FLOCK 2P 5,PAYLOAD,U,16040T,1/22/2019 9:30,718976,15.24992689,0.0010308,97.3929,89.7916,181.219,178.9025,0,999,14362,3.85E-05,8.90E-06,0,2398320,0 FLOCK 2P 5,1 41616U 16040T   19022.39633934  .00000890  00000-0  38515-4 0  9996,2 41616  97.3929  89.7916 0010308 181.2190 178.9025 15.24992689143626,2016-040T,41616,6868.944,94.426,497.889,483.728
GENERATED VIA SPACETRACK.ORG API,18 SPCS,41616,FLOCK 2P 5,PAYLOAD,U,16040T,1/22/2019 22:06,697760,15.2499339,0.0010367,97.3928,90.3099,179.4002,180.725,0,999,14370,3.67E-05,8.44E-06,0,2398549,0 FLOCK 2P 5,1 41616U 16040T   19022.92126965 +.00000844 +00000-0 +36667-4 0  9991,2 41616 097.3928 090.3099 0010367 179.4002 180.7250 15.24993390143701,2016-040T,41616,6868.942,94.426,497.928,483.686
GENERATED VIA SPACETRACK.ORG API,18 SPCS,41616,FLOCK 2P 5,PAYLOAD,U,16040T,1/23/2019 12:17,868704,15.24995107,0.0010423,97.3927,90.893,177.3807,182.7487,0,999,14379,4.08E-05,9.48E-06,0,2398858,0 FLOCK 2P 5,1 41616U 16040T   19023.51181561  .00000948  00000-0  40826-4 0  9997,2 41616  97.3927  90.8930 0010423 177.3807 182.7487 15.24995107143793,2016-040T,41616,6868.937,94.426,497.961,483.642
GENERATED VIA SPACETRACK.ORG API,18 SPCS,41616,FLOCK 2P 5,PAYLOAD,U,16040T,1/23/2019 15:25,335968,15.24995499,0.0010437,97.3927,91.0226,176.927,183.2034,0,999,14381,4.14E-05,9.63E-06,0,2399205,0 FLOCK 2P 5,1 41616U 16040T   19023.64304787 +.00000963 +00000-0 +41439-4 0  9996,2 41616 097.3927 091.0226 0010437 176.9270 183.2034 15.24995499143819,2016-040T,41616,6868.935,94.426,497.97,483.631
GENERATED VIA SPACETRACK.ORG API,18 SPCS,41616,FLOCK 2P 5,PAYLOAD,U,16040T,1/24/2019 10:19,110176,15.24997919,0.0010511,97.3926,91.8,174.2906,185.8453,0,999,14393,4.69E-05,1.10E-05,0,2399665,0 FLOCK 2P 5,1 41616U 16040T   19024.43044109 +.00001099 +00000-0 +46883-4 0  9992,2 41616 097.3926 091.8000 0010511 174.2906 185.8453 15.24997919143931,2016-040T,41616,6868.928,94.426,498.013,483.573
GENERATED VIA SPACETRACK.ORG API,18 SPCS,41616,FLOCK 2P 5,PAYLOAD,U,16040T,1/24/2019 19:46,471360,15.24998942,0.0010542,97.3926,92.1888,172.925,187.2139,0,999,14399,4.81E-05,1.13E-05,0,2399641,0 FLOCK 2P 5,1 41616U 16040T   19024.82413740  .00001130  00000-0  48118-4 0  9995,2 41616  97.3926  92.1888 0010542 172.9250 187.2139 15.24998942143990,2016-040T,41616,6868.925,94.426,498.031,483.549
GENERATED VIA SPACETRACK.ORG API,18 SPCS,41616,FLOCK 2P 5,PAYLOAD,U,16040T,1/24/2019 21:21,697216,15.24999034,0.0010549,97.3926,92.2536,172.7258,187.4135,0,999,14400,4.78E-05,1.12E-05,0,2399781,0 FLOCK 2P 5,1 41616U 16040T   19024.88975344 +.00001123 +00000-0 +47846-4 0  9993,2 41616 097.3926 092.2536 0010549 172.7258 187.4135 15.24999034144008,2016-040T,41616,6868.925,94.426,498.036,483.544
